satname,norad_id,inclination_deg,eccentricity,mean_motion_rev_per_day,perigee_km,apogee_km,l1,l2
STARLINK-1169,45061,53.0541,0.000141,15.06427144,546.1519043202134,548.1048291536317,1 45061U 20006T   25273.73701156  .00006244  00000+0  43741-3 0  9990,2 45061  53.0541 284.6754 0001410  98.9100 261.2049 15.06427144312357
STARLINK-1171,45062,53.054,0.0001396,15.06415032,546.1987151791454,548.1322596336304,1 45062U 20006U   25273.19150602  .00005188  00000+0  36679-3 0  9993,2 45062  53.0540 287.1222 0001396  93.6070 266.5078 15.06415032312270
STARLINK-1133,45064,53.0532,0.0001455,15.06397786,546.2107043352289,548.2259827401977,1 45064U 20006W   25273.66883440  .00000936  00000+0  81726-4 0  9990,2 45064  53.0532 264.9764 0001455  91.1701 268.9455 15.06397786312626
STARLINK-1150,45067,53.0386,0.000308,16.09510871,246.1445334582968,250.226348081811,1 45067U 20006Z   25273.84754704  .01110148  75008-3  11972-2 0  9999,2 45067  53.0386 203.1632 0003080 208.2634 151.8233 16.09510871313505
STARLINK-1167,45071,53.0532,0.0001688,15.06398775,546.0463129190575,548.3843118597197,1 45071U 20006AD  25273.69463435  .00000711  00000+0  66665-4 0  9995,2 45071  53.0532 264.8649 0001688  83.3211 276.7970 15.06398775312620
STARLINK-1168,45072,53.0542,0.000159,15.06397774,546.1172488106049,548.3195118215453,1 45072U 20006AE  25273.69832762  .00001247  00000+0  10258-3 0  9990,2 45072  53.0542 264.8439 0001590  85.2835 274.8336 15.06397774312627
STARLINK-1172,45074,53.0537,0.0001496,15.06418674,546.1183018267775,548.1903489913402,1 45074U 20006AG  25273.37763751  .00005234  00000+0  36979-3 0  9996,2 45074  53.0537 266.2882 0001496  85.2049 274.9110 15.06418674312571
STARLINK-1153,45080,53.0525,0.0001374,15.06398676,546.2640723611457,548.1671592599705,1 45080U 20006AN  25273.68727999  .00003399  00000+0  24699-3 0  9997,2 45080  53.0525 264.9009 0001374  85.6893 274.4253 15.06398676312625
STARLINK-1151,45081,53.0547,0.0001404,15.06396368,546.2503690171307,548.1950100179474,1 45081U 20006AP  25272.27925334  .00001893  00000+0  14596-3 0  9997,2 45081  53.0547 271.2929 0001404  85.1453 274.9696 15.06396368312412
STARLINK-1190,45083,53.0459,0.0007894,15.76425902,335.2729178159934,345.8804229588013,1 45083U 20006AR  25273.91668980  .00220110  00000+0  13299-2 0  9995,2 45083  53.0459 231.4021 0007894  74.5449  26.5065 15.76425902  5822
STARLINK-1173,45084,53.0425,0.0006049,15.88597047,302.1720786284159,310.2588082144666,1 45084U 20006AS  25273.91668980  .00334178  00000+0  11268-2 0  9990,2 45084  53.0425 194.5751 0006049  63.3857 271.3638 15.88597047  5992
STARLINK-1179,45085,53.0346,0.0001788,16.10940294,243.080986929348,245.44915791044514,1 45085U 20006AT  25273.32422545  .01113754  77819-3  10942-2 0  9991,2 45085  53.0346 186.9997 0001788 165.3051 194.8036 16.10940294313687
STARLINK-1185,45087,53.0541,0.0001754,15.06401237,545.9930612419503,548.4224721861137,1 45087U 20006AV  25273.64856226  .00000041  00000+0  21649-4 0  9990,2 45087  53.0541 245.0677 0001754  75.5405 284.5778 15.06401237312903
STARLINK-1183,45088,53.0535,0.0001461,15.06417734,546.1454208321074,548.1689917991926,1 45088U 20006AW  25273.20623565  .00004430  00000+0  31596-3 0  9998,2 45088  53.0535 247.0557 0001461  92.9642 267.1514 15.06417734312833
STARLINK-1176,45090,53.0485,0.0002698,15.859554,311.83047291231014,315.44135357629693,1 45090U 20006AY  25273.91668980  .00430204  00000+0  16340-2 0  9990,2 45090  53.0485 192.4796 0002698  53.1760 352.7443 15.85955400  5937
STARLINK-1142,45093,53.037,0.0005508,15.52612151,405.36429458870134,412.84111784907236,1 45093U 20006BB  25273.77027655  .00149246  00000+0  23468-2 0  9997,2 45093  53.0370 188.8339 0005508 110.8510 249.3089 15.52612151313703
STARLINK-1146,45094,53.0406,0.0004008,16.15297734,229.70046521421955,234.99943155204255,1 45094U 20006BC  25273.50206502  .01747644  27393-2  13151-2 0  9991,2 45094  53.0406 186.9821 0004008 175.2002 184.9073 16.15297734313707
STARLINK-1147,45095,53.0381,0.0003346,15.99315378,274.09050041643513,278.5436610872739,1 45095U 20006BD  25273.91668980  .00595833  16685-3  11861-2 0  9998,2 45095  53.0381 188.4062 0003346  74.3313 136.5074 15.99315378  6082
STARLINK-1152,45096,53.0452,0.0007389,15.2173997,495.5094558442488,505.67484178036284,1 45096U 20006BE  25273.15456723  .00086657  00000+0  37436-2 0  9990,2 45096  53.0452 233.1193 0007389  76.2978 283.8840 15.21739970313029
STARLINK-1184,45098,53.0531,0.0001174,15.06392829,546.4204976067122,548.0465746085902,1 45098U 20006BG  25273.61907937 -.00000770  00000+0 -32816-4 0  9994,2 45098  53.0531 245.2012 0001174  87.5522 272.5601 15.06392829312894
STARLINK-1193,45100,53.0543,0.0002599,15.0639542,545.425693275758,549.0254967526462,1 45100U 20006BJ  25273.61538771 -.00003600  00000+0 -22290-3 0  9993,2 45100  53.0543 245.2189 0002599  92.5236 267.6051 15.06395420312890
STARLINK-1143,45179,53.0545,0.0004091,15.35736699,455.93620747482146,461.53013464878404,1 45179U 20012B   25273.91668980  .00058743  00000+0  16634-2 0  9995,2 45179  53.0545  14.4078 0004091 271.4704 102.8631 15.35736699  5766
STARLINK-1202,45183,53.0556,0.0001617,15.06380856,546.1503938129781,548.3900705118604,1 45183U 20012F   25273.67805041 -.00001025  00000+0 -49955-4 0  9991,2 45183  53.0556  44.9388 0001617  77.8222 282.2948 15.06380856310726
STARLINK-1216,45185,53.0559,0.0001412,15.06400167,546.2331869632671,548.188905251488,1 45185U 20012H   25273.73701405 -.00000182  00000+0  66506-5 0  9993,2 45185  53.0559  44.6733 0001412  99.0289 261.0860 15.06400167310674
STARLINK-1225,45187,53.0538,0.0001417,15.06400822,546.2277170941397,548.1903601614858,1 45187U 20012K   25273.75545537  .00003667  00000+0  26494-3 0  9999,2 45187  53.0538  44.5906 0001417  84.6985 275.4166 15.06400822310724
STARLINK-1230,45189,53.0545,0.0001273,15.06421468,546.264173895971,548.027350887276,1 45189U 20012M   25273.62644237  .00005918  00000+0  41563-3 0  9999,2 45189  53.0545  45.1705 0001273  94.9868 265.1266 15.06421468307937
STARLINK-1234,45190,53.0558,0.0001735,15.06413523,545.9685714170291,548.3716529849635,1 45190U 20012N   25273.51217549  .00010049  00000+0  69228-3 0  9990,2 45190  53.0558   5.6840 0001735  96.0633 264.0554 15.06413523311150
STARLINK-1240,45194,53.033,0.0005797,16.27421703,195.6647938122751,203.2908804544477,1 45194U 20012S   25273.56096801  .03481722  12042-4  94077-3 0  9992,2 45194  53.0330 341.8627 0005797 351.2315   8.8624 16.27421703311486
STARLINK-1269,45197,53.0548,0.0001385,15.06391638,546.2780220576669,548.1963507072951,1 45197U 20012V   25273.63750919 -.00002619  00000+0 -15701-3 0  9996,2 45197  53.0548  45.1224 0001385 105.5824 254.5318 15.06391638310681
STARLINK-1154,45198,53.0555,0.0001379,15.06419683,546.1962357876628,548.1062302823339,1 45198U 20012W   25273.69464132  .00021715  00000+0  14714-2 0  9990,2 45198  53.0555  24.8651 0001379  88.9788 271.1359 15.06419683310944
STARLINK-1199,45201,53.0546,0.0001538,15.06403055,546.1370776509384,548.2673119872652,1 45201U 20012Z   25273.70568603  .00002620  00000+0  19469-3 0  9992,2 45201  53.0546  24.8149 0001538  99.1876 260.9287 15.06403055311000
STARLINK-1208,45205,53.0334,0.0002197,16.18934096,220.99734565319432,223.8976424798875,1 45205U 20012AD  25273.48216313  .02185226  66199-2  13562-2 0  9996,2 45205  53.0334 324.8259 0002197 352.7667   7.3338 16.18934096311842
STARLINK-1209,45206,53.0548,0.0001349,15.06397886,546.2838066568829,548.1522674458793,1 45206U 20012AE  25273.58220030  .00028875  00000+0  19495-2 0  9990,2 45206  53.0548   5.3724 0001349 106.8079 253.3058 15.06397886310310
STARLINK-1210,45207,53.0278,0.0012584,15.49005142,411.08080294415777,428.1894358142108,1 45207U 20012AF  25273.47702936  .00115024  00000+0  20619-2 0  9992,2 45207  53.0278 335.9403 0012584 298.9691  61.0055 15.49005142311672
STARLINK-1231,45212,53.0539,0.0002333,15.09898777,534.8958355931809,538.1222094272844,1 45212U 20012AL  25273.61738169  .00066020  00000+0  40093-2 0  9990,2 45212  53.0539  24.5547 0002333 249.3138 110.7603 15.09898777310956
STARLINK-1271,45217,53.0551,0.0001491,15.06403483,546.1683151871248,548.2334509438542,1 45217U 20012AR  25273.62460291  .00005200  00000+0  36771-3 0  9996,2 45217  53.0551  25.1761 0001491  85.3510 274.7649 15.06403483310994
STARLINK-1191,45222,53.0552,0.0001898,15.06391979,545.921705434911,548.5505770793325,1 45222U 20012AW  25273.63382284 -.00000450  00000+0 -11317-4 0  9992,2 45222  53.0552   5.1368 0001898  86.6365 273.4841 15.06391979311273
STARLINK-1212,45223,53.0549,0.0001547,15.06424699,546.0645203834174,548.2071998063293,1 45223U 20012AX  25273.58598706  .00000023  00000+0  20457-4 0  9994,2 45223  53.0549   6.0083 0001547  74.7696 285.3464 15.06424699311268
STARLINK-1215,45225,53.0555,9.5e-05,15.06408877,546.5264458170268,547.8422568737815,1 45225U 20012AZ  25273.54167449  .00008818  00000+0  60998-3 0  9991,2 45225  53.0555   5.5511 0000950  87.7771 272.3327 15.06408877311211
STARLINK-1217,45226,53.0415,0.0001906,15.95059066,286.8792149139581,289.42040344561883,1 45226U 20012BA  25273.91668980  .00543798  13193-3  13705-2 0  9994,2 45226  53.0415 308.8818 0001906   6.8016 196.0755 15.95059066  6063
STARLINK-1221,45227,53.0696,0.0002214,15.3546976,458.0116756951911,461.039392665326,1 45227U 20012BB  25273.48025260  .00027559  00000+0  79623-3 0  9998,2 45227  53.0696 305.1018 0002214 217.3365 142.7484 15.35469760312041
STARLINK-1222,45228,53.0556,0.0001447,15.06409269,546.1810561082257,548.1852437596172,1 45228U 20012BC  25273.57484002  .00005210  00000+0  36834-3 0  9999,2 45228  53.0556   5.4012 0001447 103.9306 256.1844 15.06409269311150
STARLINK-1226,45229,53.0562,0.0001566,15.06380948,546.185431461311,548.3544689181099,1 45229U 20012BD  25273.53797227 -.00014281  00000+0 -94226-3 0  9991,2 45229  53.0562   5.5627 0001566  89.9152 270.2017 15.06380948311156
